{
  "type": "FeatureCollection",
  "features": [
    {
      "type": "Feature",
      "properties": {
        "norad_id": 66508,
        "name": "STARLINK-35608",
        "group": "last-30-days",
        "lat": 5.950488167067268,
        "lon": -14.35330472454109,
        "alt_km": 369.33118673411445,
        "timestamp": "2025-12-04T17:48:38.963474+00:00",
        "meta_object_name": "STARLINK-35608",
        "meta_object_id": "2025-263Z",
        "meta_epoch": "2025-12-04T08:00:01.999872",
        "meta_mean_motion": 15.67827043,
        "meta_eccentricity": 0.00018593,
        "meta_inclination": 42.9992,
        "meta_ra_of_asc_node": 174.5199,
        "meta_arg_of_pericenter": 268.1849,
        "meta_mean_anomaly": 114.392,
        "meta_ephemeris_type": 0,
        "meta_classification_type": "U",
        "meta_norad_cat_id": 66508,
        "meta_element_set_no": 999,
        "meta_rev_at_epoch": 428,
        "meta_bstar": -0.019709138,
        "meta_mean_motion_dot": -0.01970198,
        "meta_mean_motion_ddot": 0,
        "tle_line1": "1 66508U 25263Z   25338.33335648 -.01970198  00000+0 -19709-1 0  9992",
        "tle_line2": "2 66508  42.9992 174.5199 0001859 268.1849 114.3920 15.67827043  4286"
      },
      "geometry": {
        "type": "Point",
        "coordinates": [
          -14.35330472454109,
          5.950488167067268
        ]
      }
    },
    {
      "type": "Feature",
      "properties": {
        "norad_id": 66509,
        "name": "STARLINK-35598",
        "group": "last-30-days",
        "lat": 0.7329696931565395,
        "lon": -8.738795216331525,
        "alt_km": 369.804232146339,
        "timestamp": "2025-12-04T17:48:38.963484+00:00",
        "meta_object_name": "STARLINK-35598",
        "meta_object_id": "2025-263AA",
        "meta_epoch": "2025-12-04T08:00:01.999872",
        "meta_mean_motion": 15.678459,
        "meta_eccentricity": 0.00017012,
        "meta_inclination": 42.999,
        "meta_ra_of_asc_node": 174.4987,
        "meta_arg_of_pericenter": 266.672,
        "meta_mean_anomaly": 123.5606,
        "meta_ephemeris_type": 0,
        "meta_classification_type": "U",
        "meta_norad_cat_id": 66509,
        "meta_element_set_no": 999,
        "meta_rev_at_epoch": 428,
        "meta_bstar": -0.019929474,
        "meta_mean_motion_dot": -0.01990823,
        "meta_mean_motion_ddot": 0,
        "tle_line1": "1 66509U 25263AA  25338.33335648 -.01990823  00000+0 -19929-1 0  9994",
        "tle_line2": "2 66509  42.9990 174.4987 0001701 266.6720 123.5606 15.67845900  4281"
      },
      "geometry": {
        "type": "Point",
        "coordinates": [
          -8.738795216331525,
          0.7329696931565395
        ]
      }
    },
    {
      "type": "Feature",
      "properties": {
        "norad_id": 66510,
        "name": "STARLINK-35600",
        "group": "last-30-days",
        "lat": 4.64879454055041,
        "lon": -12.943528998923295,
        "alt_km": 369.45009870024296,
        "timestamp": "2025-12-04T17:48:38.963494+00:00",
        "meta_object_name": "STARLINK-35600",
        "meta_object_id": "2025-263AB",
        "meta_epoch": "2025-12-04T08:00:01.999872",
        "meta_mean_motion": 15.67844203,
        "meta_eccentricity": 0.0001738,
        "meta_inclination": 42.9992,
        "meta_ra_of_asc_node": 174.5136,
        "meta_arg_of_pericenter": 267.9875,
        "meta_mean_anomaly": 116.4949,
        "meta_ephemeris_type": 0,
        "meta_classification_type": "U",
        "meta_norad_cat_id": 66510,
        "meta_element_set_no": 999,
        "meta_rev_at_epoch": 428,
        "meta_bstar": -0.019906374,
        "meta_mean_motion_dot": -0.01988699,
        "meta_mean_motion_ddot": 0,
        "tle_line1": "1 66510U 25263AB  25338.33335648 -.01988699  00000+0 -19906-1 0  9999",
        "tle_line2": "2 66510  42.9992 174.5136 0001738 267.9875 116.4949 15.67844203  4283"
      },
      "geometry": {
        "type": "Point",
        "coordinates": [
          -12.943528998923295,
          4.64879454055041
        ]
      }
    },
    {
      "type": "Feature",
      "properties": {
        "norad_id": 66511,
        "name": "STARLINK-35444",
        "group": "last-30-days",
        "lat": 2.039037632692236,
        "lon": -10.136121610106805,
        "alt_km": 369.7475271422509,
        "timestamp": "2025-12-04T17:48:38.963506+00:00",
        "meta_object_name": "STARLINK-35444",
        "meta_object_id": "2025-263AC",
        "meta_epoch": "2025-12-04T08:00:01.999872",
        "meta_mean_motion": 15.67842996,
        "meta_eccentricity": 0.00016868,
        "meta_inclination": 42.9991,
        "meta_ra_of_asc_node": 174.5044,
        "meta_arg_of_pericenter": 269.3956,
        "meta_mean_anomaly": 118.922,
        "meta_ephemeris_type": 0,
        "meta_classification_type": "U",
        "meta_norad_cat_id": 66511,
        "meta_element_set_no": 999,
        "meta_rev_at_epoch": 428,
        "meta_bstar": -0.019888212,
        "meta_mean_motion_dot": -0.01986973,
        "meta_mean_motion_ddot": 0,
        "tle_line1": "1 66511U 25263AC  25338.33335648 -.01986973  00000+0 -19888-1 0  9992",
        "tle_line2": "2 66511  42.9991 174.5044 0001686 269.3956 118.9220 15.67842996  4285"
      },
      "geometry": {
        "type": "Point",
        "coordinates": [
          -10.136121610106805,
          2.039037632692236
        ]
      }
    },
    {
      "type": "Feature",
      "properties": {
        "norad_id": 66512,
        "name": "STARLINK-35366",
        "group": "last-30-days",
        "lat": -0.5747872828721422,
        "lon": -7.339624516416032,
        "alt_km": 369.9433716541989,
        "timestamp": "2025-12-04T17:48:38.963517+00:00",
        "meta_object_name": "STARLINK-35366",
        "meta_object_id": "2025-263AD",
        "meta_epoch": "2025-12-04T08:00:01.999872",
        "meta_mean_motion": 15.67844145,
        "meta_eccentricity": 0.00016575,
        "meta_inclination": 42.9992,
        "meta_ra_of_asc_node": 174.4943,
        "meta_arg_of_pericenter": 267.2249,
        "meta_mean_anomaly": 124.9264,
        "meta_ephemeris_type": 0,
        "meta_classification_type": "U",
        "meta_norad_cat_id": 66512,
        "meta_element_set_no": 999,
        "meta_rev_at_epoch": 428,
        "meta_bstar": -0.019906892,
        "meta_mean_motion_dot": -0.01988675,
        "meta_mean_motion_ddot": 0,
        "tle_line1": "1 66512U 25263AD  25338.33335648 -.01988675  00000+0 -19907-1 0  9996",
        "tle_line2": "2 66512  42.9992 174.4943 0001657 267.2249 124.9264 15.67844145  4287"
      },
      "geometry": {
        "type": "Point",
        "coordinates": [
          -7.339624516416032,
          -0.5747872828721422
        ]
      }
    },
    {
      "type": "Feature",
      "properties": {
        "norad_id": 66513,
        "name": "STARLINK-35692",
        "group": "last-30-days",
        "lat": 3.345024412445815,
        "lon": -11.538252764577905,
        "alt_km": 369.6212084011495,
        "timestamp": "2025-12-04T17:48:38.963526+00:00",
        "meta_object_name": "STARLINK-35692",
        "meta_object_id": "2025-263AE",
        "meta_epoch": "2025-12-04T08:00:01.999872",
        "meta_mean_motion": 15.67843072,
        "meta_eccentricity": 0.0001714,
        "meta_inclination": 42.9992,
        "meta_ra_of_asc_node": 174.5088,
        "meta_arg_of_pericenter": 269.509,
        "meta_mean_anomaly": 116.8909,
        "meta_ephemeris_type": 0,
        "meta_classification_type": "U",
        "meta_norad_cat_id": 66513,
        "meta_element_set_no": 999,
        "meta_rev_at_epoch": 428,
        "meta_bstar": -0.019886912,
        "meta_mean_motion_dot": -0.01986886,
        "meta_mean_motion_ddot": 0,
        "tle_line1": "1 66513U 25263AE  25338.33335648 -.01986886  00000+0 -19887-1 0  9996",
        "tle_line2": "2 66513  42.9992 174.5088 0001714 269.5090 116.8909 15.67843072  4286"
      },
      "geometry": {
        "type": "Point",
        "coordinates": [
          -11.538252764577905,
          3.345024412445815
        ]
      }
    },
    {
      "type": "Feature",
      "properties": {
        "norad_id": 66514,
        "name": "SENTINEL-6B",
        "group": "last-30-days",
        "lat": -48.7857939555065,
        "lon": 29.623959827639442,
        "alt_km": 1316.387457912051,
        "timestamp": "2025-12-04T17:48:38.963537+00:00",
        "meta_object_name": "SENTINEL-6B",
        "meta_object_id": "2025-264A",
        "meta_epoch": "2025-12-03T21:55:25.872096",
        "meta_mean_motion": 12.85877574,
        "meta_eccentricity": 0.0011544,
        "meta_inclination": 66.039,
        "meta_ra_of_asc_node": 180.8509,
        "meta_arg_of_pericenter": 268.5805,
        "meta_mean_anomaly": 91.389,
        "meta_ephemeris_type": 0,
        "meta_classification_type": "U",
        "meta_norad_cat_id": 66514,
        "meta_element_set_no": 999,
        "meta_rev_at_epoch": 215,
        "meta_bstar": 0.00031328,
        "meta_mean_motion_dot": 1.5e-07,
        "meta_mean_motion_ddot": 0,
        "tle_line1": "1 66514U 25264A   25337.91349389  .00000015  00000+0  31328-3 0  9992",
        "tle_line2": "2 66514  66.0390 180.8509 0011544 268.5805  91.3890 12.85877574  2150"
      },
      "geometry": {
        "type": "Point",
        "coordinates": [
          29.623959827639442,
          -48.7857939555065
        ]
      }
    }
  ]
}